[{"OBJECT_NAME":"ICEYE-X35","OBJECT_ID":"2023-174AY","EPOCH":"2026-03-09T23:23:30.016608","MEAN_MOTION":15.44468851,"ECCENTRICITY":0.00107431,"INCLINATION":97.3849,"RA_OF_ASC_NODE":151.4029,"ARG_OF_PERICENTER":192.4001,"MEAN_ANOMALY":167.6984,"EPHEMERIS_TYPE":0,"CLASSIFICATION_TYPE":"U","NORAD_CAT_ID":58302,"ELEMENT_SET_NO":999,"REV_AT_EPOCH":12999,"BSTAR":0.00096661577,"MEAN_MOTION_DOT":0.00044959,"MEAN_MOTION_DDOT":0},{"OBJECT_NAME":"STARLINK-36754","OBJECT_ID":"2026-026E","EPOCH":"2026-03-09T22:00:01.999584","MEAN_MOTION":15.47573266,"ECCENTRICITY":0.00014,"INCLINATION":97.2847,"RA_OF_ASC_NODE":123.4211,"ARG_OF_PERICENTER":67.9715,"MEAN_ANOMALY":323.3817,"EPHEMERIS_TYPE":0,"CLASSIFICATION_TYPE":"U","NORAD_CAT_ID":67725,"ELEMENT_SET_NO":999,"REV_AT_EPOCH":535,"BSTAR":-0.046489965,"MEAN_MOTION_DOT":-0.02120238,"MEAN_MOTION_DDOT":0}]
